IRIDIUM 171             
1 43929U 19002H   24079.79984921  .00000367  00000+0  12407-3 0  9992
2 43929  86.4017 336.2447 0002196  83.5148 276.6298 14.34218168271515
IRIDIUM 170             
1 43930U 19002J   24080.22216460  .00001553  00000+0  24258-3 0  9995
2 43930  86.6134 335.9032 0002131  87.0975 273.0486 14.72210087278769
IRIDIUM 167             
1 43931U 19002K   24080.21211736  .00000156  00000+0  48553-4 0  9999
2 43931  86.4007 335.8722 0002206  83.6734 276.4713 14.34217924271577
IRIDIUM 181             
1 56726U 23068S   24079.89655194  .00000636  00000+0  18219-3 0  9992
2 56726  86.8675  25.3567 0002670  83.5337 276.6168 14.43561419 44259
IRIDIUM 177             
1 56727U 23068T   24079.78823580  .00002292  00000+0  29812-3 0  9998
2 56727  86.2031 357.8031 0002863  83.2738 276.8809 14.80226233 45152
IRIDIUM 174             
1 56728U 23068U   24079.78281398  .00002506  00000+0  32638-3 0  9992
2 56728  86.2037 357.9019 0002414  91.8728 268.2770 14.80226600 45152
IRIDIUM 178             
1 56729U 23068V   24079.84502586  .00002622  00000+0  34157-3 0  9992
2 56729  86.5835  11.0886 0002430  95.1563 264.9936 14.80230566 45168
IRIDIUM 179             
1 56730U 23068W   24079.83957188  .00002559  00000+0  33329-3 0  9994
2 56730  86.6843  14.0963 0002545  89.9133 270.2380 14.80245471 45164
